[{"OBJECT_NAME":"STARLINK-30454","OBJECT_ID":"2023-147C","EPOCH":"2026-03-09T22:00:01.999584","MEAN_MOTION":15.26731954,"ECCENTRICITY":0.00015591,"INCLINATION":42.9998,"RA_OF_ASC_NODE":323.5081,"ARG_OF_PERICENTER":271.2375,"MEAN_ANOMALY":232.3862,"EPHEMERIS_TYPE":0,"CLASSIFICATION_TYPE":"U","NORAD_CAT_ID":57915,"ELEMENT_SET_NO":999,"REV_AT_EPOCH":578,"BSTAR":-0.00010894842,"MEAN_MOTION_DOT":-3.18e-5,"MEAN_MOTION_DDOT":0},{"OBJECT_NAME":"TIANMU-1 12","OBJECT_ID":"2023-205B","EPOCH":"2026-03-09T23:16:21.235872","MEAN_MOTION":15.25812065,"ECCENTRICITY":0.00067383,"INCLINATION":97.3538,"RA_OF_ASC_NODE":91.8946,"ARG_OF_PERICENTER":353.283,"MEAN_ANOMALY":6.8317,"EPHEMERIS_TYPE":0,"CLASSIFICATION_TYPE":"U","NORAD_CAT_ID":58646,"ELEMENT_SET_NO":999,"REV_AT_EPOCH":12237,"BSTAR":0.00029269543,"MEAN_MOTION_DOT":7.417e-5,"MEAN_MOTION_DDOT":0}]
